K12H55W 18.0   0.15 K14C9 257.60001  256.74904  348.55127    6.64040  0.1827108  0.29288932   2.2456067  2 E2015-C25    40   4 2005-2015 0.36 M-v 38h MPCADO     0400          2012 HW55          20150207
K12J38D 18.2   0.15 K14C9 255.13708  192.39760   44.80389    1.85319  0.1420192  0.27141354   2.3625538  0 E2015-C25    46   6 2001-2015 0.26 M-v 38h MPCADO     0400          2012 JD38          20150207
K12K32R 17.9   0.15 K14C9 201.42074  183.22466  100.93643    3.84733  0.0792191  0.26640351   2.3920822  0 E2015-C25    44   6 2005-2015 0.29 M-v 38h MPCADO     0400          2012 KR32          20150207
K12P23X 16.3   0.15 K14C9 279.16700  101.87729  115.14763    5.42788  0.0362449  0.21116181   2.7929241  0 E2015-C25    77   7 1997-2015 0.37 M-v 38h MPCADO     0400          2012 PX23          20150207
K12Q01L 16.1   0.15 K14C9 214.88969  316.47372  328.92861   13.43324  0.1928620  0.22229173   2.6989024  1 E2015-C25    55   4 2011-2015 0.35 M-v 38h MPCADO     0000          2012 QL1           20150207
K12Q03P 16.5   0.15 K14C9 218.97319  143.38484  139.06748   14.09578  0.2546829  0.22916982   2.6446270  2 E2015-C25    58   4 2007-2015 0.50 M-v 38h MPCADO     0000          2012 QP3           20150207
K12Q25C 17.0   0.15 K14C9 235.55748  294.34352  337.92385    8.02584  0.2378815  0.21929490   2.7234351  0 E2015-C25    41   5 2003-2015 0.29 M-v 38h MPCADO     0400          2012 QC25          20150207
K12Q41K 15.9   0.15 K14C9 219.22651  309.36124  320.57477   14.20326  0.1220038  0.20283715   2.8688272  1 E2015-C25    64   6 2006-2015 0.45 M-v 38h MPCADO     0400          2012 QK41          20150207
K12R38G 15.5   0.15 K14C9 250.85996  129.36607  110.93531    7.41584  0.0095780  0.16781986   3.2551711  0 E2015-C25    76   8 2003-2015 0.37 M-v 38h MPCADO     0400          2012 RG38          20150207
K12TL9N 15.8   0.15 K14C9 248.31816  214.59129   45.27165    3.18563  0.1904346  0.19531035   2.9420669  0 E2015-C25   109   9 2000-2015 0.43 M-v 38h MPCADO     0400          2012 TN219         20150207
K13B18K 19.6   0.15 K14C9 307.30455   64.61211  137.77109   28.89917  0.4942629  0.47540256   1.6259045  0 E2015-C25    89   3 2013-2015 0.28 M-v 3Eh MPCALB     8803          2013 BK18          20150208
K13B45Z 21.9   0.15 K14C9 222.46504   99.02668  131.27185   11.87476  0.1439910  0.96632741   1.0132576  2 E2015-C25   108   3 2013-2015 0.34 M-v 3Eh MPCALB     8803          2013 BZ45          20150208
K13G12M 17.9   0.15 K14C9  53.19414  275.32531  100.11979   24.16689  0.0784256  0.38539959   1.8700873  2 E2015-C25    54   2 2013-2015 0.25 M-v 38h MPCADO     0006          2013 GM12          20150207
K13L07N 17.7   0.15 K14C9 122.85692  215.55682  133.28037   22.22980  0.0641209  0.39277439   1.8466047  1 E2015-C25    67   6 1998-2015 0.42 M-v 38h MPCADO     0406          2013 LN7           20150207
K13L31D 17.1   0.15 K14C9  64.12603  263.88942  135.26059   24.45654  0.1245189  0.35269394   1.9839804  0 E2015-C25   101   5 2004-2015 0.28 M-v 38h MPCADO     0406          2013 LD31          20150207
K13O09Y 16.9   0.15 K14C9 106.62437  232.64015  123.30557   12.19506  0.2662156  0.26469643   2.4023558  1 E2015-C25    76   7 2002-2015 0.30 M-v 38h MPCADO     0400          2013 OY9           20150207
K13P28E 16.7   0.15 K14C9  44.95137  100.99676  326.64342   12.47190  0.1426444  0.23895411   2.5719334  0 E2015-C25    47   5 2005-2015 0.41 M-v 38h MPCADO     0400          2013 PE28          20150207
K13Q13U 17.1   0.15 K14C9 359.34509  143.34349  324.43202   32.82046  0.2055432  0.23400995   2.6080335  2 E2015-C25    44   3 1994-2015 0.34 M-v 38h MPCADO     0000          2013 QU13          20150207
K13Q56X 16.9   0.15 K14C9  67.78370  275.85310  119.57678    6.18929  0.1757456  0.22782313   2.6550386  2 E2015-C25    38   3 2009-2015 0.46 M-v 38h MPCADO     0000          2013 QX56          20150207
K13Q59N 17.3   0.15 K14C9  77.11598   37.95496  354.23107    4.90141  0.1117280  0.26096481   2.4252029  0 E2015-C25    64   6 2004-2015 0.33 M-v 38h MPCADO     0400          2013 QN59          20150207
K13Q81P 17.6   0.15 K14C9  97.67826  331.61243   36.91283    2.16089  0.1767157  0.26303020   2.4124906  1 E2015-C25    67   5 2002-2015 0.27 M-v 38h MPCADO     0400          2013 QP81          20150207
K13R01T 16.9   0.15 K14C9   1.73423  348.67851  129.63415   13.26961  0.0703817  0.20643508   2.8353960  3 E2015-C25    47   2 2013-2015 0.16 M-v 38h MPCADO     0000          2013 RT1           20150207
K13R12D 17.9   0.15 K14C9  57.35018   95.46437  318.08964   14.10376  0.1112239  0.25920225   2.4361846  0 E2015-C25    72   4 1996-2015 0.19 M-v 38h MPCADO     0007          2013 RD12          20150207
K13R61A 16.5   0.15 K14C9 106.61641   26.99201  334.40560   14.17144  0.1715095  0.23309655   2.6148422  3 E2015-C25    82   3 2009-2015 0.44 M-v 38h MPCADO     0000          2013 RA61          20150207
K13R93R 17.4   0.15 K14C9  79.98608   33.68846  354.37038    3.51581  0.1108702  0.21146892   2.7902194  0 E2015-C25    58   6 2004-2015 0.28 M-v 38h MPCADO     0400          2013 RR93          20150207
K13S35M 17.0   0.15 K14C9 341.28888  156.49923  344.46120    2.00254  0.1233120  0.25654073   2.4530054  1 E2015-C25    66   5 2006-2015 0.24 M-v 38h MPCADO     0400          2013 SM35          20150207
K13S53A 17.1   0.15 K14C9 143.48385    8.67930  321.48471    5.53573  0.1274383  0.24581364   2.5238608  3 E2015-C25    78   6 2001-2015 0.40 M-v 38h MPCADO     0000          2013 SA53          20150207
K13S63G 17.8   0.15 K14C9 244.98047  231.76802   10.49681    5.51470  0.0478806  0.29879985   2.2158948  0 E2015-C25    60   5 2002-2015 0.31 M-v 38h MPCADO     0400          2013 SG63          20150207
K13S73A 17.5   0.15 K14C9 130.67629  246.31756   98.64523    7.03581  0.1441880  0.25929820   2.4355836  1 E2015-C25    39   5 2008-2015 0.50 M-v 38h MPCADO     0000          2013 SA73          20150207
K13S75O 16.2   0.15 K14C9  39.52482  108.74518  314.34784   15.62031  0.2124216  0.19230593   2.9726305  0 E2015-C25    41   4 2005-2015 0.35 M-v 38h MPCADO     0000          2013 SO75          20150207
K13S76H 16.7   0.15 K14C9  54.95418  275.97306  130.56043    9.24399  0.1994815  0.18392963   3.0622096  2 E2015-C25    37   3 2008-2015 0.33 M-v 38h MPCADO     0000          2013 SH76          20150207
K13T17R 16.5   0.15 K14C9  39.49445  130.97933  305.16361    4.16736  0.1264467  0.18160442   3.0882926  0 E2015-C25    63   6 2004-2015 0.27 M-v 38h MPCADO     0400          2013 TR17          20150207
K13T40O 17.2   0.15 K14C9  38.60955   38.29134   39.91465    2.37391  0.0450232  0.20408746   2.8570982  2 E2015-C25    44   3 2008-2015 0.24 M-v 38h MPCADO     0000          2013 TO40          20150207
K13T42Y 16.7   0.15 K14C9  59.61327   56.21907  351.92196    4.39238  0.1829134  0.17501341   3.1653507  3 E2015-C25    47   3 2007-2015 0.27 M-v 38h MPCADO     0000          2013 TY42          20150207
K13T44S 17.0   0.15 K14C9  48.74862  197.98168  230.14551    1.20021  0.0936490  0.20345153   2.8630487  0 E2015-C25    49   5 1999-2015 0.36 M-v 38h MPCADO     0400          2013 TS44          20150207
K13T46K 17.3   0.15 K14C9  70.76997   35.47187   14.82884    6.35693  0.0546088  0.22768873   2.6560833  0 E2015-C25    48   4 2009-2015 0.28 M-v 38h MPCADO     0000          2013 TK46          20150207
K13T72Q 16.4   0.15 K14C9  82.24708  310.09556   69.73508    1.67756  0.1709452  0.18008947   3.1055880  0 E2015-C25    69   6 1991-2015 0.41 M-v 38h MPCADO     0400          2013 TQ72          20150207
K13T74T 15.9   0.15 K14C9  29.20657  273.58889  170.55268    2.08235  0.1274999  0.17370928   3.1811736  0 E2015-C25    91   8 2001-2015 0.29 M-v 38h MPCADO     0400          2013 TT74          20150207
K13T90C 16.2   0.15 K14C9  57.00436   44.92085   11.59873    5.27668  0.1392764  0.17811238   3.1285275  0 E2015-C25    71   8 1999-2015 0.37 M-v 38h MPCADO     0400          2013 TC90          20150207
K13TB0S 16.2   0.15 K14C9  89.00770   22.85654  356.64245    6.15677  0.1769794  0.18231222   3.0802942  0 E2015-C25    70   6 2002-2015 0.33 M-v 38h MPCADO     0400          2013 TS110         20150207
K13TB4M 15.8   0.15 K14C9  90.27207   29.52756  352.30262    2.75486  0.1039680  0.17643986   3.1482671  0 E2015-C25   107   8 2002-2015 0.37 M-v 38h MPCADO     0400          2013 TM114         20150207
K13V22Y 16.1   0.15 K14C9  47.43969  303.29858  130.98503   11.29561  0.1212601  0.17881921   3.1202778  0 E2015-C25    45   5 2004-2015 0.19 M-v 38h MPCADO     0000          2013 VY22          20150207
K13WA5Q 16.9   0.15 K14C9 129.14493  211.88697  131.57398   11.59178  0.1824993  0.22247039   2.6974572  0 E2015-C25    72   6 2004-2015 0.35 M-v 38h MPCADO     0400          2013 WQ105         20150207
K14E24K 23.2   0.15 K14C9  28.13494   62.44929  341.91526    4.72208  0.0723276  0.97925225   1.0043220  2 E2015-C25   108   2 2014-2015 0.35 M-v 3Eh MPCALB     0803          2014 EK24          20150207
K14N52E 18.0   0.15 K14C9  13.88462  337.48433   54.65475    3.84895  0.6559470  0.26698061   2.3886338  3 E2015-C25   181   2 2014-2015 0.33 M-v 3Eh MPCALB     9803          2014 NE52          20150207
K14Oc9K 16.1   0.15 K14C9  21.05335  275.33893   77.19340    3.73320  0.2676879  0.17278222   3.1925425  2 E2015-C25    70   1  193 days 0.25 M-v 38h MPCADO     0000          2014 OK389         20150207
K14P68F 18.2   0.15 K14C9   0.25399   13.78002  342.24995   22.75455  0.5901093  0.20509146   2.8477662  3 E2015-C25    54   2 2014-2015 0.37 M-v 38h MPCALB     1804          2014 PF68          20150208
K14QQ6A 17.1   0.15 K14C9  28.99772  262.75049   80.33161   18.08360  0.4953068  0.16236706   3.3276484  3 E2015-C25    37   1  168 days 0.42 M-v 38h MPCADO     0000          2014 QA266         20150208
K14QQ6K 19.3   0.15 K14C9   5.24660   39.00908  340.51650   12.94030  0.5755301  0.21434903   2.7651691  3 E2015-C25    41   2 2014-2015 0.30 M-v 38h MPCALB     0804          2014 QK266         20150208
